{"type": "FeatureCollection", "features": [ {"type": "Feature", "properties": {"norad_id": 30386, "name": "FENGYUN 1C DEB", "group": "fengyun-1c-debris", "lat": 69.65412968836478, "lon": -136.40979244340912, "alt_km": 950.0252452077912, "timestamp": "2025-12-19T10:50:01.477138+00:00", "meta": {"OBJECT_NAME": "FENGYUN 1C DEB", "OBJECT_ID": "1999-025ACZ", "EPOCH": "2025-12-18T06:45:41.560128", "MEAN_MOTION": 13.55588005, "ECCENTRICITY": 0.0303951, "INCLINATION": 98.691, "RA_OF_ASC_NODE": 246.9176, "ARG_OF_PERICENTER": 141.3311, "MEAN_ANOMALY": 348.2801, "EPHEMERIS_TYPE": 0, "CLASSIFICATION_TYPE": "U", "NORAD_CAT_ID": 30386, "ELEMENT_SET_NO": 999, "REV_AT_EPOCH": 92904, "BSTAR": 0.0015341286, "MEAN_MOTION_DOT": 1.4e-05, "MEAN_MOTION_DDOT": 0}, "tle": {"line1": "1 30386U 99025ACZ 25352.28173102  .00001400  00000+0  15341-2 0  9996", "line2": "2 30386  98.6910 246.9176 0303951 141.3311 348.2801 13.55588005929045"}}, "geometry": {"type": "Point", "coordinates": [-136.40979244340912, 69.65412968836478]}}, {"type": "Feature", "properties": {"norad_id": 30387, "name": "FENGYUN 1C DEB", "group": "fengyun-1c-debris", "lat": 9.336003949359577, "lon": -170.244225612903, "alt_km": 843.5979252503457, "timestamp": "2025-12-19T10:50:01.477149+00:00", "meta": {"OBJECT_NAME": "FENGYUN 1C DEB", "OBJECT_ID": "1999-025ADA", "EPOCH": "2025-12-17T14:31:11.740800", "MEAN_MOTION": 14.150576, "ECCENTRICITY": 0.00011784, "INCLINATION": 98.6561, "RA_OF_ASC_NODE": 6.5295, "ARG_OF_PERICENTER": 94.3875, "MEAN_ANOMALY": 35.3285, "EPHEMERIS_TYPE": 0, "CLASSIFICATION_TYPE": "U", "NORAD_CAT_ID": 30387, "ELEMENT_SET_NO": 999, "REV_AT_EPOCH": 97393, "BSTAR": 0.00023314482, "MEAN_MOTION_DOT": 4.09e-06, "MEAN_MOTION_DDOT": 0}, "tle": {"line1": "1 30387U 99025ADA 25351.60499700  .00000409  00000+0  23314-3 0  9995", "line2": "2 30387  98.6561   6.5295 0001178  94.3875  35.3285 14.15057600973934"}}, "geometry": {"type": "Point", "coordinates": [-170.244225612903, 9.336003949359577]}}, {"type": "Feature", "properties": {"norad_id": 30388, "name": "FENGYUN 1C DEB", "group": "fengyun-1c-debris", "lat": -19.256151156898806, "lon": -169.0988272909607, "alt_km": 976.4856047775029, "timestamp": "2025-12-19T10:50:01.477159+00:00", "meta": {"OBJECT_NAME": "FENGYUN 1C DEB", "OBJECT_ID": "1999-025ADB", "EPOCH": "2025-12-18T20:56:24.279072", "MEAN_MOTION": 14.19783811, "ECCENTRICITY": 0.02218748, "INCLINATION": 98.5987, "RA_OF_ASC_NODE": 13.3683, "ARG_OF_PERICENTER": 45.1319, "MEAN_ANOMALY": 75.9575, "EPHEMERIS_TYPE": 0, "CLASSIFICATION_TYPE": "U", "NORAD_CAT_ID": 30388, "ELEMENT_SET_NO": 999, "REV_AT_EPOCH": 97519, "BSTAR": 0.00037158753, "MEAN_MOTION_DOT": 9.62e-06, "MEAN_MOTION_DDOT": 0}, "tle": {"line1": "1 30388U 99025ADB 25352.87250323  .00000962  00000+0  37159-3 0  9998", "line2": "2 30388  98.5987  13.3683 0221874  45.1319  75.9575 14.19783811975193"}}, "geometry": {"type": "Point", "coordinates": [-169.0988272909607, -19.256151156898806]}}, {"type": "Feature", "properties": {"norad_id": 30389, "name": "FENGYUN 1C DEB", "group": "fengyun-1c-debris", "lat": 67.50954728640055, "lon": -82.97434080559574, "alt_km": 738.5607763401795, "timestamp": "2025-12-19T10:50:01.477169+00:00", "meta": {"OBJECT_NAME": "FENGYUN 1C DEB", "OBJECT_ID": "1999-025ADC", "EPOCH": "2025-12-18T19:54:21.333312", "MEAN_MOTION": 14.4414604, "ECCENTRICITY": 0.00145602, "INCLINATION": 98.8388, "RA_OF_ASC_NODE": 74.3037, "ARG_OF_PERICENTER": 204.6304, "MEAN_ANOMALY": 274.4158, "EPHEMERIS_TYPE": 0, "CLASSIFICATION_TYPE": "U", "NORAD_CAT_ID": 30389, "ELEMENT_SET_NO": 999, "REV_AT_EPOCH": 97874, "BSTAR": 0.0017456045, "MEAN_MOTION_DOT": 5.949e-05, "MEAN_MOTION_DDOT": 0}, "tle": {"line1": "1 30389U 99025ADC 25352.82941358  .00005949  00000+0  17456-2 0  9996", "line2": "2 30389  98.8388  74.3037 0014560 204.6304 274.4158 14.44146040978742"}}, "geometry": {"type": "Point", "coordinates": [-82.97434080559574, 67.50954728640055]}}, {"type": "Feature", "properties": {"norad_id": 30390, "name": "FENGYUN 1C DEB", "group": "fengyun-1c-debris", "lat": -32.71099618898123, "lon": 82.4704840441319, "alt_km": 847.2835636165282, "timestamp": "2025-12-19T10:50:01.477179+00:00", "meta": {"OBJECT_NAME": "FENGYUN 1C DEB", "OBJECT_ID": "1999-025ADD", "EPOCH": "2025-12-18T20:26:27.923712", "MEAN_MOTION": 14.29784084, "ECCENTRICITY": 0.00680357, "INCLINATION": 98.8231, "RA_OF_ASC_NODE": 76.1379, "ARG_OF_PERICENTER": 147.0259, "MEAN_ANOMALY": 334.9346, "EPHEMERIS_TYPE": 0, "CLASSIFICATION_TYPE": "U", "NORAD_CAT_ID": 30390, "ELEMENT_SET_NO": 999, "REV_AT_EPOCH": 97471, "BSTAR": 0.0013441148, "MEAN_MOTION_DOT": 3.497e-05, "MEAN_MOTION_DDOT": 0}, "tle": {"line1": "1 30390U 99025ADD 25352.85171208  .00003497  00000+0  13441-2 0  9996", "line2": "2 30390  98.8231  76.1379 0068035 147.0259 334.9346 14.29784084974718"}}, "geometry": {"type": "Point", "coordinates": [82.4704840441319, -32.71099618898123]}}, {"type": "Feature", "properties": {"norad_id": 30391, "name": "FENGYUN 1C DEB", "group": "fengyun-1c-debris", "lat": -79.73829116090019, "lon": 97.98227010592387, "alt_km": 801.6185706210827, "timestamp": "2025-12-19T10:50:01.477190+00:00", "meta": {"OBJECT_NAME": "FENGYUN 1C DEB", "OBJECT_ID": "1999-025ADE", "EPOCH": "2025-12-18T03:18:58.759776", "MEAN_MOTION": 14.16261142, "ECCENTRICITY": 0.00716691, "INCLINATION": 98.7806, "RA_OF_ASC_NODE": 38.0678, "ARG_OF_PERICENTER": 246.5426, "MEAN_ANOMALY": 176.5571, "EPHEMERIS_TYPE": 0, "CLASSIFICATION_TYPE": "U", "NORAD_CAT_ID": 30391, "ELEMENT_SET_NO": 999, "REV_AT_EPOCH": 96955, "BSTAR": 0.00096837347, "MEAN_MOTION_DOT": 1.924e-05, "MEAN_MOTION_DDOT": 0}, "tle": {"line1": "1 30391U 99025ADE 25352.13818009  .00001924  00000+0  96837-3 0  9999", "line2": "2 30391  98.7806  38.0678 0071669 246.5426 176.5571 14.16261142969550"}}, "geometry": {"type": "Point", "coordinates": [97.98227010592387, -79.73829116090019]}}, {"type": "Feature", "properties": {"norad_id": 30392, "name": "FENGYUN 1C DEB", "group": "fengyun-1c-debris", "lat": 53.93285715834715, "lon": -0.40374356060301775, "alt_km": 831.175833848587, "timestamp": "2025-12-19T10:50:01.477200+00:00", "meta": {"OBJECT_NAME": "FENGYUN 1C DEB", "OBJECT_ID": "1999-025ADF", "EPOCH": "2025-12-18T07:35:29.283360", "MEAN_MOTION": 14.07465945, "ECCENTRICITY": 0.01807435, "INCLINATION": 98.7851, "RA_OF_ASC_NODE": 10.7503, "ARG_OF_PERICENTER": 341.1514, "MEAN_ANOMALY": 83.5844, "EPHEMERIS_TYPE": 0, "CLASSIFICATION_TYPE": "U", "NORAD_CAT_ID": 30392, "ELEMENT_SET_NO": 999, "REV_AT_EPOCH": 96749, "BSTAR": 0.00049149533, "MEAN_MOTION_DOT": 9.17e-06, "MEAN_MOTION_DDOT": 0}, "tle": {"line1": "1 30392U 99025ADF 25352.31631115  .00000917  00000+0  49150-3 0  9998", "line2": "2 30392  98.7851  10.7503 0180743 341.1514  83.5844 14.07465945967497"}}, "geometry": {"type": "Point", "coordinates": [-0.40374356060301775, 53.93285715834715]}}, {"type": "Feature", "properties": {"norad_id": 30393, "name": "FENGYUN 1C DEB", "group": "fengyun-1c-debris", "lat": -56.634908483995254, "lon": 65.4280266301864, "alt_km": 879.290787065358, "timestamp": "2025-12-19T10:50:01.477210+00:00", "meta": {"OBJECT_NAME": "FENGYUN 1C DEB", "OBJECT_ID": "1999-025ADG", "EPOCH": "2025-12-18T18:32:23.236224", "MEAN_MOTION": 13.98989476, "ECCENTRICITY": 0.00697268, "INCLINATION": 99.1647, "RA_OF_ASC_NODE": 50.5585, "ARG_OF_PERICENTER": 243.3455, "MEAN_ANOMALY": 240.8489, "EPHEMERIS_TYPE": 0, "CLASSIFICATION_TYPE": "U", "NORAD_CAT_ID": 30393, "ELEMENT_SET_NO": 999, "REV_AT_EPOCH": 96414, "BSTAR": 0.00023548493, "MEAN_MOTION_DOT": 3.02e-06, "MEAN_MOTION_DDOT": 0}, "tle": {"line1": "1 30393U 99025ADG 25352.77249116  .00000302  00000+0  23548-3 0  9996", "line2": "2 30393  99.1647  50.5585 0069726 243.3455 240.8489 13.98989476964143"}}, "geometry": {"type": "Point", "coordinates": [65.4280266301864, -56.634908483995254]}}, {"type": "Feature", "properties": {"norad_id": 30394, "name": "FENGYUN 1C DEB", "group": "fengyun-1c-debris", "lat": -15.121325569948894, "lon": -160.70173160170364, "alt_km": 936.8009400817145, "timestamp": "2025-12-19T10:50:01.477220+00:00", "meta": {"OBJECT_NAME": "FENGYUN 1C DEB", "OBJECT_ID": "1999-025ADH", "EPOCH": "2025-12-18T08:12:21.100032", "MEAN_MOTION": 13.95790489, "ECCENTRICITY": 0.00897872, "INCLINATION": 99.4344, "RA_OF_ASC_NODE": 20.7378, "ARG_OF_PERICENTER": 86.4238, "MEAN_ANOMALY": 295.798, "EPHEMERIS_TYPE": 0, "CLASSIFICATION_TYPE": "U", "NORAD_CAT_ID": 30394, "ELEMENT_SET_NO": 999, "REV_AT_EPOCH": 96182, "BSTAR": 8.3457903e-05, "MEAN_MOTION_DOT": 7.2e-07, "MEAN_MOTION_DDOT": 0}, "tle": {"line1": "1 30394U 99025ADH 25352.34191088  .00000072  00000+0  83458-4 0  9995", "line2": "2 30394  99.4344  20.7378 0089787  86.4238 295.7980 13.95790489961822"}}, "geometry": {"type": "Point", "coordinates": [-160.70173160170364, -15.121325569948894]}}, {"type": "Feature", "properties": {"norad_id": 30395, "name": "FENGYUN 1C DEB", "group": "fengyun-1c-debris", "lat": 6.101795384642056, "lon": 7.855770083434332, "alt_km": 790.7283922026272, "timestamp": "2025-12-19T10:50:01.477230+00:00", "meta": {"OBJECT_NAME": "FENGYUN 1C DEB", "OBJECT_ID": "1999-025ADJ", "EPOCH": "2025-12-18T14:43:44.707296", "MEAN_MOTION": 13.9669916, "ECCENTRICITY": 0.01600554, "INCLINATION": 98.9302, "RA_OF_ASC_NODE": 8.0054, "ARG_OF_PERICENTER": 9.9785, "MEAN_ANOMALY": 106.64, "EPHEMERIS_TYPE": 0, "CLASSIFICATION_TYPE": "U", "NORAD_CAT_ID": 30395, "ELEMENT_SET_NO": 999, "REV_AT_EPOCH": 96105, "BSTAR": 0.00032456854, "MEAN_MOTION_DOT": 4.59e-06, "MEAN_MOTION_DDOT": 0}, "tle": {"line1": "1 30395U 99025ADJ 25352.61371189  .00000459  00000+0  32457-3 0  9999", "line2": "2 30395  98.9302   8.0054 0160055   9.9785 106.6400 13.96699160961053"}}, "geometry": {"type": "Point", "coordinates": [7.855770083434332, 6.101795384642056]}}]}